STARLINK-5911           
1 55950U 23037AN  26011.49406460  .00000368  00000+0  38600-4 0  9999
2 55950  70.0005  48.7560 0003058 270.4478  89.6331 14.98328824155905
STARLINK-5908           
1 55951U 23037AP  26011.60275814  .00000544  00000+0  53347-4 0  9991
2 55951  69.9995  68.2096 0003111 271.0884  88.9918 14.98333695155433
STARLINK-5893           
1 55952U 23037AQ  26011.66667824 -.00031763  00000+0 -26646-2 0  9993
2 55952  70.0017  48.3474 0003248 272.1912 275.2684 14.98353903  5772
STARLINK-5892           
1 55954U 23037AS  26011.53577928  .00000102  00000+0  16332-4 0  9990
2 55954  69.9999  48.4989 0003101 270.3837  89.6967 14.98329891155918
STARLINK-5878           
1 55955U 23037AT  26011.48571731 -.00000532  00000+0 -36777-4 0  9995
2 55955  70.0002  48.7263 0003132 270.7607  89.3193 14.98326103155908
STARLINK-5883           
1 55956U 23037AU  26011.52743363  .00000582  00000+0  56537-4 0  9992
2 55956  70.0005  48.4711 0003051 268.2268  91.8541 14.98326431155912
STARLINK-5884           
1 55957U 23037AV  26011.48989299 -.00000272  00000+0 -15029-4 0  9997
2 55957  70.0002  48.7417 0003211 270.4308  89.6483 14.98331156155903
STARLINK-5928           
1 55958U 23037AW  26011.48154464 -.00000706  00000+0 -51360-4 0  9996
2 55958  69.9999  48.7120 0002823 268.7018  91.3818 14.98325521155904
STARLINK-5929           
1 55959U 23037AX  26011.54412841  .00000207  00000+0  25101-4 0  9998
2 55959  70.0002  48.5292 0002755 266.7128  93.3716 14.98329403155918
STARLINK-5938           
1 55960U 23037AY  26011.55682168 -.00000969  00000+0 -73419-4 0  9994
2 55960  70.0004  48.5556 0003179 268.3655  91.7140 14.98321203155912
STARLINK-5933           
1 55961U 23037AZ  26011.53160412  .00000546  00000+0  53542-4 0  9990
2 55961  69.9997  48.4853 0003138 269.9438  90.1361 14.98329781155918
STARLINK-5906           
1 55962U 23037BA  26011.50241128  .00000769  00000+0  72269-4 0  9996
2 55962  70.0002  48.7798 0003446 270.4091  89.6673 14.98332820155900
STARLINK-5924           
1 55963U 23037BB  26011.53995356 -.00005485  00000+0 -45205-3 0  9990
2 55963  69.9997  48.5141 0003082 275.3966  84.6841 14.98348696155913
STARLINK-5895           
1 55964U 23037BC  26011.48135551  .00020089  00000+0  14236-2 0  9992
2 55964  69.9992  46.6540 0006615 309.1248  50.9326 15.04778138155959
STARLINK-5894           
1 55965U 23037BD  26011.52325806  .00000989  00000+0  90666-4 0  9992
2 55965  70.0002  48.4550 0002905 267.6649  92.4177 14.98326064155917
STARLINK-5905           
1 55986U 23042A   26011.36857121  .00000984  00000+0  87928-4 0  9995
2 55986  43.0035   7.9416 0001226 266.1187  93.9516 15.02533712155103
