[{"OBJECT_NAME":"STARLINK-5911","OBJECT_ID":"2023-037AN","EPOCH":"2026-01-11T11:51:27.181440","MEAN_MOTION":14.98328824,"ECCENTRICITY":0.00030587,"INCLINATION":70.0005,"RA_OF_ASC_NODE":48.756,"ARG_OF_PERICENTER":270.4478,"MEAN_ANOMALY":89.6331,"EPHEMERIS_TYPE":0,"CLASSIFICATION_TYPE":"U","NORAD_CAT_ID":55950,"ELEMENT_SET_NO":999,"REV_AT_EPOCH":15590,"BSTAR":3.8600387e-5,"MEAN_MOTION_DOT":3.68e-6,"MEAN_MOTION_DDOT":0},{"OBJECT_NAME":"STARLINK-5908","OBJECT_ID":"2023-037AP","EPOCH":"2026-01-11T14:27:58.303296","MEAN_MOTION":14.98333695,"ECCENTRICITY":0.00031111,"INCLINATION":69.9995,"RA_OF_ASC_NODE":68.2096,"ARG_OF_PERICENTER":271.0884,"MEAN_ANOMALY":88.9918,"EPHEMERIS_TYPE":0,"CLASSIFICATION_TYPE":"U","NORAD_CAT_ID":55951,"ELEMENT_SET_NO":999,"REV_AT_EPOCH":15543,"BSTAR":5.3347042e-5,"MEAN_MOTION_DOT":5.44e-6,"MEAN_MOTION_DDOT":0},{"OBJECT_NAME":"STARLINK-5893","OBJECT_ID":"2023-037AQ","EPOCH":"2026-01-11T16:00:00.999936","MEAN_MOTION":14.98353903,"ECCENTRICITY":0.00032484,"INCLINATION":70.0017,"RA_OF_ASC_NODE":48.3474,"ARG_OF_PERICENTER":272.1912,"MEAN_ANOMALY":275.2684,"EPHEMERIS_TYPE":0,"CLASSIFICATION_TYPE":"U","NORAD_CAT_ID":55952,"ELEMENT_SET_NO":999,"REV_AT_EPOCH":577,"BSTAR":-0.0026646039,"MEAN_MOTION_DOT":-0.00031763,"MEAN_MOTION_DDOT":0},{"OBJECT_NAME":"STARLINK-5892","OBJECT_ID":"2023-037AS","EPOCH":"2026-01-11T12:51:31.329792","MEAN_MOTION":14.98329891,"ECCENTRICITY":0.00031013,"INCLINATION":69.9999,"RA_OF_ASC_NODE":48.4989,"ARG_OF_PERICENTER":270.3837,"MEAN_ANOMALY":89.6967,"EPHEMERIS_TYPE":0,"CLASSIFICATION_TYPE":"U","NORAD_CAT_ID":55954,"ELEMENT_SET_NO":999,"REV_AT_EPOCH":15591,"BSTAR":1.6331855e-5,"MEAN_MOTION_DOT":1.02e-6,"MEAN_MOTION_DDOT":0},{"OBJECT_NAME":"STARLINK-5878","OBJECT_ID":"2023-037AT","EPOCH":"2026-01-11T11:39:25.975584","MEAN_MOTION":14.98326103,"ECCENTRICITY":0.00031326,"INCLINATION":70.0002,"RA_OF_ASC_NODE":48.7263,"ARG_OF_PERICENTER":270.7607,"MEAN_ANOMALY":89.3193,"EPHEMERIS_TYPE":0,"CLASSIFICATION_TYPE":"U","NORAD_CAT_ID":55955,"ELEMENT_SET_NO":999,"REV_AT_EPOCH":15590,"BSTAR":-3.6777429e-5,"MEAN_MOTION_DOT":-5.32e-6,"MEAN_MOTION_DDOT":0},{"OBJECT_NAME":"STARLINK-5883","OBJECT_ID":"2023-037AU","EPOCH":"2026-01-11T12:39:30.265632","MEAN_MOTION":14.98326431,"ECCENTRICITY":0.00030519,"INCLINATION":70.0005,"RA_OF_ASC_NODE":48.4711,"ARG_OF_PERICENTER":268.2268,"MEAN_ANOMALY":91.8541,"EPHEMERIS_TYPE":0,"CLASSIFICATION_TYPE":"U","NORAD_CAT_ID":55956,"ELEMENT_SET_NO":999,"REV_AT_EPOCH":15591,"BSTAR":5.6537042e-5,"MEAN_MOTION_DOT":5.82e-6,"MEAN_MOTION_DDOT":0},{"OBJECT_NAME":"STARLINK-5884","OBJECT_ID":"2023-037AV","EPOCH":"2026-01-11T11:45:26.754336","MEAN_MOTION":14.98331156,"ECCENTRICITY":0.00032117,"INCLINATION":70.0002,"RA_OF_ASC_NODE":48.7417,"ARG_OF_PERICENTER":270.4308,"MEAN_ANOMALY":89.6483,"EPHEMERIS_TYPE":0,"CLASSIFICATION_TYPE":"U","NORAD_CAT_ID":55957,"ELEMENT_SET_NO":999,"REV_AT_EPOCH":15590,"BSTAR":-1.5029388e-5,"MEAN_MOTION_DOT":-2.72e-6,"MEAN_MOTION_DDOT":0},{"OBJECT_NAME":"STARLINK-5928","OBJECT_ID":"2023-037AW","EPOCH":"2026-01-11T11:33:25.456896","MEAN_MOTION":14.98325521,"ECCENTRICITY":0.00028236,"INCLINATION":69.9999,"RA_OF_ASC_NODE":48.712,"ARG_OF_PERICENTER":268.7018,"MEAN_ANOMALY":91.3818,"EPHEMERIS_TYPE":0,"CLASSIFICATION_TYPE":"U","NORAD_CAT_ID":55958,"ELEMENT_SET_NO":999,"REV_AT_EPOCH":15590,"BSTAR":-5.1360224e-5,"MEAN_MOTION_DOT":-7.06e-6,"MEAN_MOTION_DDOT":0},{"OBJECT_NAME":"STARLINK-5929","OBJECT_ID":"2023-037AX","EPOCH":"2026-01-11T13:03:32.694624","MEAN_MOTION":14.98329403,"ECCENTRICITY":0.00027554,"INCLINATION":70.0002,"RA_OF_ASC_NODE":48.5292,"ARG_OF_PERICENTER":266.7128,"MEAN_ANOMALY":93.3716,"EPHEMERIS_TYPE":0,"CLASSIFICATION_TYPE":"U","NORAD_CAT_ID":55959,"ELEMENT_SET_NO":999,"REV_AT_EPOCH":15591,"BSTAR":2.51011e-5,"MEAN_MOTION_DOT":2.07e-6,"MEAN_MOTION_DDOT":0},{"OBJECT_NAME":"STARLINK-5938","OBJECT_ID":"2023-037AY","EPOCH":"2026-01-11T13:21:49.393152","MEAN_MOTION":14.98321203,"ECCENTRICITY":0.00031798,"INCLINATION":70.0004,"RA_OF_ASC_NODE":48.5556,"ARG_OF_PERICENTER":268.3655,"MEAN_ANOMALY":91.714,"EPHEMERIS_TYPE":0,"CLASSIFICATION_TYPE":"U","NORAD_CAT_ID":55960,"ELEMENT_SET_NO":999,"REV_AT_EPOCH":15591,"BSTAR":-7.3418687e-5,"MEAN_MOTION_DOT":-9.69e-6,"MEAN_MOTION_DDOT":0},{"OBJECT_NAME":"STARLINK-5933","OBJECT_ID":"2023-037AZ","EPOCH":"2026-01-11T12:45:30.595968","MEAN_MOTION":14.98329781,"ECCENTRICITY":0.00031389,"INCLINATION":69.9997,"RA_OF_ASC_NODE":48.4853,"ARG_OF_PERICENTER":269.9438,"MEAN_ANOMALY":90.1361,"EPHEMERIS_TYPE":0,"CLASSIFICATION_TYPE":"U","NORAD_CAT_ID":55961,"ELEMENT_SET_NO":999,"REV_AT_EPOCH":15591,"BSTAR":5.3542066e-5,"MEAN_MOTION_DOT":5.46e-6,"MEAN_MOTION_DDOT":0},{"OBJECT_NAME":"STARLINK-5906","OBJECT_ID":"2023-037BA","EPOCH":"2026-01-11T12:03:28.334592","MEAN_MOTION":14.9833282,"ECCENTRICITY":0.00034464,"INCLINATION":70.0002,"RA_OF_ASC_NODE":48.7798,"ARG_OF_PERICENTER":270.4091,"MEAN_ANOMALY":89.6673,"EPHEMERIS_TYPE":0,"CLASSIFICATION_TYPE":"U","NORAD_CAT_ID":55962,"ELEMENT_SET_NO":999,"REV_AT_EPOCH":15590,"BSTAR":7.2269334e-5,"MEAN_MOTION_DOT":7.69e-6,"MEAN_MOTION_DDOT":0},{"OBJECT_NAME":"STARLINK-5924","OBJECT_ID":"2023-037BB","EPOCH":"2026-01-11T12:57:31.987584","MEAN_MOTION":14.98348696,"ECCENTRICITY":0.00030821,"INCLINATION":69.9997,"RA_OF_ASC_NODE":48.5141,"ARG_OF_PERICENTER":275.3966,"MEAN_ANOMALY":84.6841,"EPHEMERIS_TYPE":0,"CLASSIFICATION_TYPE":"U","NORAD_CAT_ID":55963,"ELEMENT_SET_NO":999,"REV_AT_EPOCH":15591,"BSTAR":-0.00045205131,"MEAN_MOTION_DOT":-5.485e-5,"MEAN_MOTION_DDOT":0},{"OBJECT_NAME":"STARLINK-5895","OBJECT_ID":"2023-037BC","EPOCH":"2026-01-11T11:33:09.116064","MEAN_MOTION":15.04778138,"ECCENTRICITY":0.00066152,"INCLINATION":69.9992,"RA_OF_ASC_NODE":46.654,"ARG_OF_PERICENTER":309.1248,"MEAN_ANOMALY":50.9326,"EPHEMERIS_TYPE":0,"CLASSIFICATION_TYPE":"U","NORAD_CAT_ID":55964,"ELEMENT_SET_NO":999,"REV_AT_EPOCH":15595,"BSTAR":0.0014236348,"MEAN_MOTION_DOT":0.00020089,"MEAN_MOTION_DDOT":0},{"OBJECT_NAME":"STARLINK-5894","OBJECT_ID":"2023-037BD","EPOCH":"2026-01-11T12:33:29.496384","MEAN_MOTION":14.98326064,"ECCENTRICITY":0.0002905,"INCLINATION":70.0002,"RA_OF_ASC_NODE":48.455,"ARG_OF_PERICENTER":267.6649,"MEAN_ANOMALY":92.4177,"EPHEMERIS_TYPE":0,"CLASSIFICATION_TYPE":"U","NORAD_CAT_ID":55965,"ELEMENT_SET_NO":999,"REV_AT_EPOCH":15591,"BSTAR":9.0665856e-5,"MEAN_MOTION_DOT":9.89e-6,"MEAN_MOTION_DDOT":0},{"OBJECT_NAME":"STARLINK-5905","OBJECT_ID":"2023-042A","EPOCH":"2026-01-11T08:50:44.552544","MEAN_MOTION":15.02533712,"ECCENTRICITY":0.00012262,"INCLINATION":43.0035,"RA_OF_ASC_NODE":7.9416,"ARG_OF_PERICENTER":266.1187,"MEAN_ANOMALY":93.9516,"EPHEMERIS_TYPE":0,"CLASSIFICATION_TYPE":"U","NORAD_CAT_ID":55986,"ELEMENT_SET_NO":999,"REV_AT_EPOCH":15510,"BSTAR":8.7928248e-5,"MEAN_MOTION_DOT":9.84e-6,"MEAN_MOTION_DDOT":0}]
